O3B MPOWER F1           
1 54755U 22174A   24118.47517439 -.00000014  00000+0  00000+0 0  9992
2 54755   0.0652   2.3076 0006715  39.5691 148.7166  5.00114653 26300
